{"type":"FeatureCollection", "features": [
{"type":"Feature","geometry":{"type":"Polygon","coordinates":[[[-62.4177,-13.1189],[-62.1152,-13.1637],[-61.8171,-13.5274],[-61.2483,-13.4963],[-60.919,-13.5483],[-60.7093,-13.693],[-60.3879,-13.4547],[-60.3716,-13.3186],[-60.3332,-13.258],[-60.1172,-12.9596],[-60.0289,-12.6186],[-59.7794,-12.3415],[-60.1109,-11.5825],[-59.9344,-11.4237],[-59.9768,-11.1224],[-60.3916,-11.0938],[-60.4601,-10.9899],[-61.0006,-10.9922],[-61.429,-10.9875],[-61.5503,-10.9861],[-61.4618,-10.4199],[-61.5402,-10.0002],[-61.5746,-9.7178],[-61.477,-9.6299],[-61.6162,-9.3268],[-61.4692,-8.9201],[-61.5831,-8.7987],[-60.4202,-8.7966],[-59.1274,-8.8033],[-58.4419,-8.7987],[-58.2864,-8.0885],[-58.3782,-7.8274],[-58.1371,-7.3561],[-57.8967,-7.6779],[-57.8319,-7.9615],[-57.6417,-8.2199],[-57.5929,-8.7565],[-57.2038,-8.9208],[-57.0598,-9.1824],[-56.6719,-9.3674],[-56.2723,-9.4008],[-56.1565,-9.4104],[-55.8672,-9.4343],[-54.9956,-9.5053],[-54.6135,-9.5358],[-54.1068,-9.5719],[-53.5891,-9.611],[-53.1334,-9.6452],[-52.6193,-9.6823],[-52.2567,-9.7077],[-51.3043,-9.7729],[-50.846,-9.8006],[-50.2248,-9.8412],[-50.4181,-10.3546],[-50.6033,-10.6598],[-50.6035,-10.6609],[-50.6095,-11.0674],[-50.6999,-11.3131],[-50.6701,-11.5816],[-50.7173,-11.7274],[-50.6236,-12.4553],[-50.6839,-12.6481],[-50.511,-12.8609],[-50.4342,-12.6494],[-50.1418,-12.3954],[-50.1934,-12.5638],[-50.3108,-12.7916],[-49.9088,-12.9751],[-49.3683,-13.2723],[-49.2377,-12.8838],[-48.9762,-12.9579],[-48.8798,-12.8171],[-48.8703,-12.8033],[-48.5759,-13.1242],[-48.5801,-13.3133],[-48.5161,-13.1391],[-48.4589,-13.2804],[-48.1437,-13.1525],[-48.1699,-13.3003],[-47.7982,-13.329],[-47.6797,-13.4682],[-47.5687,-13.1169],[-47.3929,-13.2624],[-46.8548,-13.0676],[-46.6354,-12.9699],[-46.4459,-12.9358],[-46.418,-12.8224],[-46.3644,-12.9907],[-46.113,-12.918],[-46.328,-12.9547],[-46.2824,-12.7639],[-46.1983,-12.5041],[-46.1982,-12.504],[-46.3716,-12.3498],[-46.3712,-12.0997],[-46.3889,-12.0488],[-46.3376,-11.8131],[-46.3617,-11.631],[-46.1445,-11.6243],[-46.0809,-11.624],[-46.1128,-11.606],[-46.4393,-11.521],[-46.5599,-11.3716],[-46.553,-11.2654],[-46.1276,-10.6206],[-45.8202,-10.4561],[-45.7235,-10.1554],[-46.0124,-10.2507],[-46.1949,-10.183],[-46.4452,-10.0774],[-46.4751,-9.9045],[-46.6444,-9.7403],[-46.6328,-9.4116],[-47.0383,-9.0006],[-46.8461,-8.534],[-46.7267,-8.3831],[-46.544,-8.3174],[-46.4657,-8.0727],[-46.6086,-7.893],[-46.8066,-7.951],[-47.0148,-8.0588],[-47.4298,-7.5472],[-47.5916,-7.4401],[-47.684,-7.2454],[-47.5471,-7.0167],[-47.5205,-6.8405],[-47.4962,-6.6972],[-47.4651,-6.5815],[-47.4252,-6.4974],[-47.4303,-6.4226],[-47.3807,-6.25],[-47.4302,-6.0684],[-47.4394,-6.0118],[-47.4379,-5.8571],[-47.4423,-5.8308],[-47.4769,-5.6373],[-47.4797,-5.6217],[-47.6804,-5.4154],[-47.8275,-5.3866],[-47.8667,-5.3053],[-47.9373,-5.2396],[-48.0147,-5.238],[-48.0691,-5.2715],[-48.1849,-5.257],[-48.225,-5.2355],[-48.4872,-5.1939],[-48.7552,-5.3492],[-48.4519,-5.1122],[-48.2124,-4.9249],[-48.1946,-4.911],[-48.0584,-4.8042],[-48.0254,-4.7783],[-47.8162,-4.6147],[-47.68,-4.6086],[-47.3472,-4.1087],[-47.0887,-3.8616],[-47.0306,-3.6046],[-47.0383,-3.5643],[-46.6765,-3.0941],[-46.6696,-2.7346],[-46.4358,-2.4709],[-46.4394,-2.4132],[-46.2632,-2.0493],[-46.2234,-1.9149],[-46.3152,-1.7416],[-46.1613,-1.6228],[-46.1041,-1.202],[-46.2076,-0.8856],[-46.3374,-1.0215],[-46.6364,-0.9691],[-46.796,-0.8705],[-46.9426,-0.8593],[-47.0637,-0.7946],[-47.2619,-0.6478],[-47.426,-0.6573],[-47.6081,-0.6978],[-47.6315,-0.7063],[-47.7562,-0.6063],[-47.977,-0.6862],[-48.1416,-0.7542],[-48.1716,-0.8164],[-48.4096,-0.9058],[-48.5061,-0.7509],[-48.4288,-0.2272],[-48.9179,-0.2296],[-49.1646,-0.1303],[-49.3826,-0.1915],[-49.397,0.0622],[-49.6996,0.1505],[-49.5732,0.4166],[-50.1678,0.3403],[-50.0364,0.5342],[-50.2261,0.6962],[-49.8898,1.0136],[-49.9016,1.2403],[-49.9206,1.6879],[-50.1587,1.8112],[-50.4237,1.8045],[-50.684,2.1437],[-50.9542,2.8372],[-51.1093,3.4506],[-51.1508,3.9138],[-51.2164,4.15],[-51.6376,4.5088],[-51.6561,4.0539],[-51.9726,3.7055],[-52.3269,3.0805],[-52.5521,2.52],[-52.9043,2.1885],[-53.2792,2.186],[-53.7488,2.3128],[-54.1891,2.1788],[-54.4366,2.2099],[-54.8723,2.4337],[-54.9543,2.5837],[-55.7077,2.4032],[-55.718,2.4021],[-55.9347,2.5335],[-56.139,2.2658],[-55.9039,1.8881],[-55.999,1.8314],[-56.4371,1.9518],[-56.7881,1.8544],[-57.0868,2.0265],[-57.4335,1.906],[-57.5772,1.6904],[-57.9902,1.6585],[-58.0043,1.5031],[-58.3172,1.5685],[-58.5088,1.463],[-58.4963,1.268],[-58.8955,1.2277],[-59.4127,1.5516],[-59.6902,1.7563],[-59.7344,1.9996],[-59.9884,2.6798],[-59.8727,3.5638],[-59.5265,3.9246],[-59.709,4.1619],[-59.7359,4.4237],[-60.1615,4.5178],[-60.0259,4.7057],[-59.972,5.0749],[-60.2125,5.2718],[-60.6972,5.2288],[-60.6524,4.8846],[-60.9979,4.5156],[-61.2698,4.5397],[-61.5083,4.3218],[-62.1436,4.0752],[-62.3897,4.178],[-62.7361,4.0399],[-62.7291,3.8046],[-62.9861,3.6099],[-63.205,3.9513],[-63.5111,3.8471],[-63.6769,4.0191],[-63.9658,3.8682],[-64.1719,4.1288],[-64.5605,4.1016],[-64.8105,4.1746],[-64.1844,3.4893],[-64.2187,3.0906],[-64.0147,2.8122],[-63.9601,2.4731],[-63.3554,2.3823],[-63.3721,2.2119],[-63.8297,1.9682],[-64.0619,1.9307],[-64.0652,1.676],[-64.4,1.3949],[-64.3975,1.5268],[-64.7639,1.2308],[-64.823,1.2785],[-65.165,0.9505],[-65.3291,0.9316],[-65.443,0.6899],[-65.5856,1.0089],[-65.9644,0.8095],[-66.3165,0.7361],[-66.8569,1.2302],[-67.0882,1.1669],[-67.0974,1.7326],[-67.2781,1.8757],[-67.3893,2.244],[-67.9413,1.8307],[-68.1407,1.9848],[-68.1568,1.7316],[-69.8458,1.7077],[-69.8466,1.0779],[-69.3219,1.0884],[-69.1401,0.8838],[-69.1157,0.644],[-70.0465,0.5621],[-70.0464,0.0683],[-70.0574,-0.1868],[-69.6111,-0.5135],[-69.6264,-0.7497],[-69.4217,-1.0004],[-69.4297,-1.3873],[-69.6134,-2.4402],[-69.8376,-3.6866],[-69.9507,-4.2693],[-70.1328,-4.282],[-70.2932,-4.1599],[-70.759,-4.1587],[-70.938,-4.3832],[-71.2665,-4.3845],[-71.6169,-4.5289],[-71.7788,-4.4847],[-72.8871,-5.1616],[-72.9618,-5.6546],[-73.2502,-6.1449],[-73.1089,-6.41],[-73.213,-6.5778],[-73.6428,-6.7621],[-73.8016,-7.1118],[-73.6989,-7.2957],[-73.9833,-7.5662],[-73.6935,-7.7709],[-73.6322,-8.059],[-73.537,-8.3455],[-73.3321,-8.4754],[-73.128,-8.7712],[-72.9402,-9.069],[-73.2119,-9.4117],[-72.7197,-9.4117],[-72.3404,-9.5087],[-72.1529,-9.7968],[-72.1805,-10],[-71.3774,-10],[-71.0777,-9.8277],[-70.5698,-9.4322],[-70.5247,-9.7153],[-70.6206,-10.0793],[-70.6205,-10.425],[-70.6209,-10.7055],[-70.621,-10.9996],[-70.161,-11.0426],[-69.9339,-10.9212],[-69.4235,-10.9266],[-68.7486,-11.0187],[-68.7161,-11.1456],[-68.3882,-11.0406],[-68.0022,-10.6484],[-67.7046,-10.7004],[-67.5673,-10.5095],[-67.0023,-10.2297],[-66.6269,-9.898],[-65.9821,-9.8088],[-65.5541,-9.832],[-65.4434,-9.6693],[-65.333,-9.9443],[-65.2888,-10.2199],[-65.3815,-10.4291],[-65.3625,-10.8016],[-65.2509,-10.9845],[-65.3635,-11.1473],[-65.2048,-11.7495],[-65.0905,-11.7078],[-65.0289,-11.9976],[-64.8396,-12.0107],[-64.5946,-12.2157],[-64.4062,-12.447],[-63.9634,-12.5297],[-63.6848,-12.4531],[-63.2994,-12.6818],[-63.0906,-12.636],[-62.8922,-12.8588],[-62.4177,-13.1189]]]},"properties":{"codarea":"1"}},
{"type":"Feature","geometry":{"type":"MultiPolygon","coordinates":[[[[-48.0254,-4.7783],[-48.0584,-4.8042],[-48.1946,-4.911],[-48.2124,-4.9249],[-48.4519,-5.1122],[-48.7552,-5.3492],[-48.4872,-5.1939],[-48.225,-5.2355],[-48.1849,-5.257],[-48.0691,-5.2715],[-48.0147,-5.238],[-47.9373,-5.2396],[-47.8667,-5.3053],[-47.8275,-5.3866],[-47.6804,-5.4154],[-47.4797,-5.6217],[-47.4769,-5.6373],[-47.4423,-5.8308],[-47.4379,-5.8571],[-47.4394,-6.0118],[-47.4302,-6.0684],[-47.3807,-6.25],[-47.4303,-6.4226],[-47.4252,-6.4974],[-47.4651,-6.5815],[-47.4962,-6.6972],[-47.5205,-6.8405],[-47.5471,-7.0167],[-47.684,-7.2454],[-47.5916,-7.4401],[-47.4298,-7.5472],[-47.0148,-8.0588],[-46.8066,-7.951],[-46.6086,-7.893],[-46.4657,-8.0727],[-46.544,-8.3174],[-46.7267,-8.3831],[-46.8461,-8.534],[-47.0383,-9.0006],[-46.6328,-9.4116],[-46.6444,-9.7403],[-46.4751,-9.9045],[-46.4452,-10.0774],[-46.1949,-10.183],[-46.0124,-10.2507],[-45.7235,-10.1554],[-45.8202,-10.4561],[-46.1276,-10.6206],[-46.553,-11.2654],[-46.5599,-11.3716],[-46.4393,-11.521],[-46.1128,-11.606],[-46.0809,-11.624],[-46.1445,-11.6243],[-46.3617,-11.631],[-46.3376,-11.8131],[-46.3889,-12.0488],[-46.3712,-12.0997],[-46.3716,-12.3498],[-46.1982,-12.504],[-46.1983,-12.5041],[-46.2824,-12.7639],[-46.328,-12.9547],[-46.113,-12.918],[-46.2987,-13.0638],[-46.2925,-13.3169],[-46.0683,-13.2954],[-46.209,-13.4656],[-46.2357,-13.7081],[-46.2121,-14.0101],[-46.227,-14.049],[-46.0601,-14.2319],[-45.9072,-14.3552],[-46.021,-14.6699],[-46.0251,-14.6781],[-46.0394,-14.8753],[-46.0376,-14.8747],[-45.9717,-15.1539],[-45.7398,-15.1204],[-45.6169,-15.0141],[-45.3057,-14.8337],[-44.7414,-14.4671],[-44.4118,-14.2816],[-44.296,-14.2532],[-44.0457,-14.2838],[-43.7832,-14.3392],[-43.8184,-14.3877],[-43.8812,-14.5624],[-43.7122,-14.7153],[-43.531,-14.8154],[-43.5308,-14.8155],[-43.487,-14.7903],[-43.175,-14.6511],[-42.8721,-14.7647],[-42.6187,-14.9397],[-42.5157,-14.9829],[-42.479,-15.0142],[-42.2776,-15.1137],[-42.2656,-15.125],[-42.0485,-15.1707],[-41.8103,-15.1014],[-41.8023,-15.1003],[-41.7599,-15.138],[-41.4561,-15.4103],[-41.3643,-15.493],[-41.3619,-15.495],[-41.3422,-15.6386],[-41.3302,-15.7433],[-41.1425,-15.772],[-40.8168,-15.6476],[-40.7006,-15.6673],[-40.6449,-15.7289],[-40.5198,-15.7976],[-40.45,-15.7616],[-40.2357,-15.8035],[-40.1275,-15.9071],[-39.9148,-16],[-39.9178,-16.2843],[-40.0172,-16.3478],[-40.1102,-16.4493],[-40.3132,-16.6786],[-40.307,-16.6968],[-40.4013,-16.8902],[-40.4077,-16.8987],[-40.4336,-16.8874],[-40.5787,-17.1496],[-40.5478,-17.2837],[-40.6047,-17.3562],[-40.5195,-17.4474],[-40.483,-17.4885],[-40.3441,-17.6156],[-40.2402,-17.7349],[-40.2237,-17.7343],[-40.2119,-17.8949],[-40.2224,-17.9804],[-40.2204,-17.9816],[-39.9118,-18.179],[-39.6678,-18.3372],[-39.4912,-17.9979],[-39.2575,-17.828],[-39.1373,-17.685],[-39.1917,-17.446],[-39.1175,-16.8925],[-39.0088,-16.3457],[-38.9484,-16.0924],[-38.8936,-15.7667],[-38.9732,-15.3855],[-38.9963,-15.0852],[-39.0343,-14.5153],[-39.0177,-14.4185],[-38.9889,-14.2174],[-38.9517,-13.8724],[-38.9678,-13.8488],[-38.9722,-13.8424],[-38.9884,-13.7168],[-38.9685,-13.6721],[-38.9508,-13.3899],[-38.9188,-13.2136],[-38.7975,-13.1375],[-38.5856,-13.0127],[-38.3043,-12.9109],[-38.2802,-12.8807],[-38.0302,-12.5972],[-37.8933,-12.4082],[-37.7699,-12.2387],[-37.6857,-12.099],[-37.5128,-11.7407],[-37.3411,-11.4423],[-37.2602,-11.2896],[-37.1545,-11.1616],[-37.0346,-10.9573],[-36.8527,-10.7442],[-36.6729,-10.6308],[-36.4862,-10.5364],[-36.3959,-10.4969],[-36.3014,-10.3446],[-36.2596,-10.2641],[-36.0315,-10.0508],[-35.9627,-9.9407],[-35.9047,-9.8559],[-35.8553,-9.7883],[-35.7898,-9.7112],[-35.5585,-9.4875],[-35.5246,-9.4426],[-35.4725,-9.358],[-35.3868,-9.2863],[-35.3391,-9.2307],[-35.2951,-9.1555],[-35.2413,-9.0647],[-35.1527,-8.9139],[-35.1302,-8.8623],[-35.1028,-8.7849],[-35.0878,-8.6908],[-35.0482,-8.6094],[-34.9609,-8.3667],[-34.9286,-8.2253],[-34.9088,-8.1551],[-34.8605,-8.0445],[-34.828,-7.9591],[-34.8411,-7.8451],[-34.8451,-7.8164],[-34.8482,-7.6878],[-34.8339,-7.5486],[-34.8027,-7.3879],[-34.8058,-7.2445],[-34.8424,-7.056],[-34.859,-7.0297],[-34.8691,-6.9781],[-34.8987,-6.8659],[-34.9248,-6.7676],[-34.9315,-6.7211],[-34.965,-6.6029],[-34.9685,-6.4872],[-35.0319,-6.3108],[-35.0334,-6.2864],[-35.0939,-6.1834],[-35.0978,-6.1398],[-35.121,-5.9817],[-35.1541,-5.8978],[-35.2036,-5.7432],[-35.2271,-5.6121],[-35.2558,-5.5169],[-35.326,-5.3813],[-35.3824,-5.27],[-35.6171,-5.114],[-35.7909,-5.0774],[-35.9083,-5.0595],[-36.0375,-5.0515],[-36.0995,-5.0772],[-36.3083,-5.1021],[-36.4068,-5.0807],[-36.7156,-5.0809],[-36.8557,-4.9723],[-37.1386,-4.9479],[-37.221,-4.8814],[-37.2527,-4.8314],[-37.5404,-4.6447],[-37.7695,-4.4264],[-37.8451,-4.3817],[-38.1477,-4.1021],[-38.2233,-4.0072],[-38.4018,-3.8238],[-38.5876,-3.6964],[-38.8066,-3.5485],[-38.9321,-3.4654],[-39.0646,-3.4067],[-39.1648,-3.3262],[-39.3793,-3.1833],[-39.5506,-3.0792],[-39.721,-2.9969],[-39.9424,-2.8664],[-40.3719,-2.8124],[-40.455,-2.8034],[-40.5901,-2.8464],[-41.1017,-2.9009],[-41.3227,-2.9213],[-41.4362,-2.906],[-41.6496,-2.8644],[-41.7818,-2.7583],[-41.826,-2.7573],[-42.2226,-2.6922],[-42.4876,-2.7033],[-42.6415,-2.6253],[-43.0148,-2.4567],[-43.3781,-2.3422],[-43.4617,-2.4864],[-43.6968,-2.5149],[-43.7412,-2.4351],[-43.7619,-2.4187],[-44.0788,-2.7438],[-44.1484,-2.7681],[-44.2658,-2.7604],[-44.1757,-2.7021],[-44.0928,-2.5747],[-44.0362,-2.5567],[-44.0523,-2.4661],[-44.1738,-2.458],[-44.1837,-2.461],[-44.2208,-2.4739],[-44.41,-2.7992],[-44.4955,-3.026],[-44.5481,-3.0451],[-44.5916,-3.0409],[-44.6625,-3.0129],[-44.652,-2.893],[-44.6501,-2.805],[-44.5553,-2.5965],[-44.358,-2.3405],[-44.4626,-2.145],[-44.6444,-2.2963],[-44.6777,-2.2805],[-44.5777,-2.0292],[-44.5517,-1.8885],[-44.6153,-1.7633],[-44.8537,-1.6175],[-44.8899,-1.6036],[-44.9531,-1.56],[-45.196,-1.4881],[-45.3238,-1.597],[-45.3086,-1.3329],[-45.4755,-1.4798],[-45.6108,-1.2746],[-45.7813,-1.1926],[-45.7891,-1.1873],[-45.7965,-1.1826],[-45.8467,-1.213],[-45.9946,-1.053],[-46.1041,-1.202],[-46.1613,-1.6228],[-46.3152,-1.7416],[-46.2234,-1.9149],[-46.2632,-2.0493],[-46.4394,-2.4132],[-46.4358,-2.4709],[-46.6696,-2.7346],[-46.6765,-3.0941],[-47.0383,-3.5643],[-47.0306,-3.6046],[-47.0887,-3.8616],[-47.3472,-4.1087],[-47.68,-4.6086],[-47.8162,-4.6147],[-48.0254,-4.7783]]],[[[-44.4815,-2.7266],[-44.5862,-2.8147],[-44.6381,-2.981],[-44.479,-2.9579],[-44.4815,-2.7266]]]]},"properties":{"codarea":"2"}},
{"type":"Feature","geometry":{"type":"MultiPolygon","coordinates":[[[[-47.6797,-18.3561],[-47.7695,-18.4183],[-47.8605,-18.4402],[-47.8646,-18.4491],[-47.9546,-18.5],[-48.027,-18.4361],[-48.2272,-18.346],[-48.2718,-18.3294],[-48.3418,-18.3708],[-48.6538,-18.3428],[-48.9177,-18.3059],[-48.9595,-18.3235],[-49.0538,-18.4026],[-49.2493,-18.5228],[-49.2927,-18.5639],[-49.3734,-18.6348],[-49.4862,-18.5323],[-49.5476,-18.5396],[-49.723,-18.6094],[-49.7577,-18.6097],[-49.7946,-18.6438],[-50.0288,-18.6015],[-50.0798,-18.6719],[-50.27,-18.6842],[-50.3523,-18.7603],[-50.4732,-18.9214],[-50.6457,-19.1348],[-50.7331,-19.187],[-50.7404,-19.2132],[-50.828,-19.3108],[-50.8256,-19.4733],[-50.935,-19.4675],[-51.0335,-19.7907],[-51.0005,-20.0854],[-51.0012,-20.0963],[-51.1094,-20.2801],[-51.3435,-20.3556],[-51.4188,-20.465],[-51.5676,-20.6183],[-51.5752,-20.6234],[-51.6236,-20.9444],[-51.7725,-21.0511],[-51.8797,-21.1979],[-51.8611,-21.3367],[-51.9622,-21.4933],[-52.1022,-21.5698],[-52.1613,-21.7708],[-52.3919,-22.1147],[-52.4562,-22.1853],[-52.6553,-22.3031],[-52.9482,-22.4734],[-53.1052,-22.6219],[-53.0385,-22.6184],[-53.0117,-22.5988],[-52.7829,-22.6021],[-52.7643,-22.6086],[-52.5378,-22.616],[-52.4457,-22.6083],[-52.4214,-22.6106],[-52.29,-22.6282],[-52.1828,-22.6554],[-52.1523,-22.5692],[-52.1356,-22.5269],[-52.0329,-22.5392],[-52.0284,-22.5395],[-51.9015,-22.6019],[-51.8902,-22.6132],[-51.8558,-22.6317],[-51.7182,-22.669],[-51.6305,-22.6579],[-51.6279,-22.6582],[-51.5172,-22.69],[-51.4464,-22.653],[-51.3331,-22.6671],[-51.2982,-22.6735],[-51.2137,-22.7237],[-51.176,-22.7388],[-51.0044,-22.7937],[-50.9787,-22.7826],[-50.9277,-22.7977],[-50.8236,-22.8661],[-50.7959,-22.9512],[-50.6373,-22.9069],[-50.5772,-22.904],[-50.5268,-22.9348],[-50.3592,-22.9161],[-50.3402,-22.9481],[-50.2039,-22.9528],[-50.1331,-22.9399],[-50.0528,-22.9055],[-49.9742,-22.9545],[-49.9725,-22.9585],[-49.8337,-23.0659],[-49.8194,-23.077],[-49.8095,-23.0892],[-49.7165,-23.1484],[-49.6271,-23.2818],[-49.6379,-23.3495],[-49.5981,-23.4582],[-49.6242,-23.5233],[-49.6021,-23.6521],[-49.5747,-23.676],[-49.5597,-23.7936],[-49.608,-23.8394],[-49.5358,-23.9282],[-49.5223,-23.9166],[-49.2542,-24.3179],[-49.2535,-24.405],[-49.2524,-24.4339],[-49.2505,-24.4454],[-49.2079,-24.7009],[-49.1579,-24.6719],[-49.1298,-24.6819],[-48.9123,-24.674],[-48.8108,-24.675],[-48.5381,-24.7262],[-48.5664,-24.9168],[-48.5981,-25.0033],[-48.5563,-25.0843],[-48.2397,-24.9914],[-48.0961,-25.3089],[-47.9095,-25.0529],[-47.4153,-24.6756],[-47.0779,-24.4482],[-46.8976,-24.2529],[-46.7094,-24.1441],[-46.6044,-24.0897],[-46.3919,-23.9986],[-46.3551,-23.9711],[-46.3063,-23.9931],[-46.1332,-23.8565],[-45.8424,-23.7582],[-45.3963,-23.8081],[-45.427,-23.7084],[-45.2767,-23.5783],[-44.9082,-23.3342],[-44.7242,-23.3676],[-44.5211,-23.0273],[-44.1657,-23.0339],[-43.8806,-22.9158],[-43.796,-22.9171],[-43.5624,-23.0532],[-43.2855,-23.015],[-43.2728,-22.8098],[-43.2146,-22.7277],[-43.0389,-22.6926],[-43.0259,-22.7261],[-43.0266,-22.7431],[-43.1034,-22.8559],[-43.0138,-22.9768],[-42.6412,-22.9375],[-42.3816,-22.9357],[-42.2812,-22.9395],[-42.0373,-22.9331],[-41.9694,-22.8228],[-41.9735,-22.7296],[-41.9914,-22.5981],[-41.9792,-22.5625],[-41.8178,-22.417],[-41.6891,-22.3],[-41.5424,-22.2346],[-41.1338,-22.0955],[-40.9818,-21.9111],[-41.0481,-21.6178],[-40.961,-21.3011],[-40.9261,-21.1902],[-40.8092,-20.9958],[-40.7589,-20.8657],[-40.7012,-20.8346],[-40.5709,-20.7652],[-40.3772,-20.5355],[-40.2744,-20.32],[-40.2149,-20.2426],[-40.1918,-20.0545],[-40.1545,-20.0121],[-39.9117,-19.687],[-39.6891,-19.3049],[-39.7193,-19.097],[-39.7465,-18.7062],[-39.6678,-18.3372],[-39.9118,-18.179],[-40.2204,-17.9816],[-40.2224,-17.9804],[-40.2119,-17.8949],[-40.2237,-17.7343],[-40.2402,-17.7349],[-40.3441,-17.6156],[-40.483,-17.4885],[-40.5195,-17.4474],[-40.6047,-17.3562],[-40.5478,-17.2837],[-40.5787,-17.1496],[-40.4336,-16.8874],[-40.4077,-16.8987],[-40.4013,-16.8902],[-40.307,-16.6968],[-40.3132,-16.6786],[-40.1102,-16.4493],[-40.0172,-16.3478],[-39.9178,-16.2843],[-39.9148,-16],[-40.1275,-15.9071],[-40.2357,-15.8035],[-40.45,-15.7616],[-40.5198,-15.7976],[-40.6449,-15.7289],[-40.7006,-15.6673],[-40.8168,-15.6476],[-41.1425,-15.772],[-41.3302,-15.7433],[-41.3422,-15.6386],[-41.3619,-15.495],[-41.3643,-15.493],[-41.4561,-15.4103],[-41.7599,-15.138],[-41.8023,-15.1003],[-41.8103,-15.1014],[-42.0485,-15.1707],[-42.2656,-15.125],[-42.2776,-15.1137],[-42.479,-15.0142],[-42.5157,-14.9829],[-42.6187,-14.9397],[-42.8721,-14.7647],[-43.175,-14.6511],[-43.487,-14.7903],[-43.5308,-14.8155],[-43.531,-14.8154],[-43.7122,-14.7153],[-43.8812,-14.5624],[-43.8184,-14.3877],[-43.7832,-14.3392],[-44.0457,-14.2838],[-44.296,-14.2532],[-44.4118,-14.2816],[-44.7414,-14.4671],[-45.3057,-14.8337],[-45.6169,-15.0141],[-45.7398,-15.1204],[-45.9717,-15.1539],[-46.0376,-14.8747],[-46.0394,-14.8753],[-46.1768,-14.9494],[-46.5034,-14.7041],[-46.5605,-14.815],[-46.5027,-15.0509],[-46.5261,-15.0564],[-46.9251,-15.0575],[-46.8737,-15.2854],[-46.8826,-15.6101],[-46.8062,-15.8706],[-46.9525,-15.9166],[-47.1366,-15.9274],[-47.31,-16.0363],[-47.3085,-16.05],[-47.3226,-16.2091],[-47.4544,-16.4646],[-47.2257,-16.7205],[-47.1274,-16.9787],[-47.5108,-17.3261],[-47.5246,-17.4119],[-47.5366,-17.4571],[-47.3131,-17.5434],[-47.3712,-17.8313],[-47.2834,-18.0408],[-47.4079,-18.1419],[-47.4298,-18.1652],[-47.607,-18.2462],[-47.6102,-18.3157],[-47.6797,-18.3561]]],[[[-43.6678,-23.0531],[-43.6666,-23.0426],[-43.7931,-23.0615],[-43.793,-23.0639],[-43.6678,-23.0531]]]]},"properties":{"codarea":"3"}},
{"type":"Feature","geometry":{"type":"MultiPolygon","coordinates":[[[[-49.1298,-24.6819],[-49.1579,-24.6719],[-49.2079,-24.7009],[-49.2505,-24.4454],[-49.2524,-24.4339],[-49.2535,-24.405],[-49.2542,-24.3179],[-49.5223,-23.9166],[-49.5358,-23.9282],[-49.608,-23.8394],[-49.5597,-23.7936],[-49.5747,-23.676],[-49.6021,-23.6521],[-49.6242,-23.5233],[-49.5981,-23.4582],[-49.6379,-23.3495],[-49.6271,-23.2818],[-49.7165,-23.1484],[-49.8095,-23.0892],[-49.8194,-23.077],[-49.8337,-23.0659],[-49.9725,-22.9585],[-49.9742,-22.9545],[-50.0528,-22.9055],[-50.1331,-22.9399],[-50.2039,-22.9528],[-50.3402,-22.9481],[-50.3592,-22.9161],[-50.5268,-22.9348],[-50.5772,-22.904],[-50.6373,-22.9069],[-50.7959,-22.9512],[-50.8236,-22.8661],[-50.9277,-22.7977],[-50.9787,-22.7826],[-51.0044,-22.7937],[-51.176,-22.7388],[-51.2137,-22.7237],[-51.2982,-22.6735],[-51.3331,-22.6671],[-51.4464,-22.653],[-51.5172,-22.69],[-51.6279,-22.6582],[-51.6305,-22.6579],[-51.7182,-22.669],[-51.8558,-22.6317],[-51.8902,-22.6132],[-51.9015,-22.6019],[-52.0284,-22.5395],[-52.0329,-22.5392],[-52.1356,-22.5269],[-52.1523,-22.5692],[-52.1828,-22.6554],[-52.29,-22.6282],[-52.4214,-22.6106],[-52.4457,-22.6083],[-52.5378,-22.616],[-52.7643,-22.6086],[-52.7829,-22.6021],[-53.0117,-22.5988],[-53.0385,-22.6184],[-53.1052,-22.6219],[-53.1279,-22.6523],[-53.24,-22.7335],[-53.3274,-22.7646],[-53.4104,-22.8139],[-53.634,-23.0034],[-53.7149,-23.2834],[-53.7622,-23.3593],[-53.9602,-23.4434],[-54.0306,-23.6282],[-54.0511,-23.6872],[-54.0836,-23.8055],[-54.084,-23.865],[-54.169,-23.999],[-54.2862,-24.0682],[-54.2616,-24.375],[-54.2956,-24.4276],[-54.3185,-24.5907],[-54.3269,-24.6595],[-54.3323,-24.6945],[-54.4572,-25.0393],[-54.4736,-25.2115],[-54.6191,-25.4507],[-54.4453,-25.6657],[-54.2963,-25.5576],[-54.144,-25.521],[-53.9912,-25.5861],[-53.8498,-25.6908],[-53.8427,-25.7707],[-53.8189,-25.9123],[-53.7342,-26.0428],[-53.6721,-26.1762],[-53.6514,-26.2068],[-53.639,-26.2508],[-53.6888,-26.4286],[-53.6884,-26.4433],[-53.7209,-26.5378],[-53.7307,-26.6007],[-53.7144,-26.7508],[-53.6773,-26.8439],[-53.6754,-26.8928],[-53.6717,-26.9428],[-53.7327,-27.0042],[-53.8371,-27.1684],[-54.055,-27.264],[-54.1115,-27.3025],[-54.2174,-27.385],[-54.2839,-27.4478],[-54.4746,-27.4812],[-54.632,-27.5457],[-54.7233,-27.5635],[-54.9029,-27.6989],[-54.9993,-27.7905],[-55.0517,-27.8524],[-55.2778,-27.9329],[-55.3398,-27.966],[-55.3755,-28.034],[-55.4384,-28.0863],[-55.7712,-28.2415],[-55.6922,-28.4164],[-55.884,-28.4792],[-56.3233,-28.9247],[-56.5888,-29.1198],[-56.78,-29.42],[-57.2354,-29.7808],[-57.3281,-29.9719],[-57.5941,-30.179],[-57.2042,-30.2851],[-57.1152,-30.1137],[-56.6581,-30.2013],[-56.2899,-30.5323],[-56.0236,-30.7857],[-56.0111,-31.0816],[-55.5786,-30.8329],[-55.2468,-31.2522],[-55.0358,-31.2839],[-54.7013,-31.4357],[-54.4546,-31.6528],[-53.9475,-31.9546],[-53.7256,-32.0984],[-53.6765,-32.2381],[-53.644,-32.3849],[-53.1764,-32.6585],[-52.968,-32.4905],[-52.6229,-32.1456],[-52.6209,-32.6379],[-52.8322,-32.915],[-53.1239,-32.7938],[-53.1744,-33.0035],[-53.4692,-33.2554],[-53.5228,-33.6893],[-53.422,-33.7438],[-52.7767,-33.2831],[-52.4229,-32.6288],[-52.0972,-32.1617],[-52.2236,-31.7889],[-52.0135,-31.5972],[-52.0102,-31.5009],[-51.8117,-31.2857],[-51.5378,-31.115],[-51.4488,-30.8722],[-51.2654,-30.4798],[-51.3283,-30.2265],[-51.3012,-30.0542],[-51.2719,-30.039],[-51.0629,-30.2596],[-51.0556,-30.392],[-50.6208,-30.1984],[-50.5426,-30.2523],[-50.6864,-30.5008],[-50.7538,-30.8189],[-51.179,-31.1342],[-51.2375,-31.4574],[-51.4282,-31.492],[-51.6587,-31.7669],[-52.0152,-31.9224],[-52.0772,-32.1432],[-51.8309,-31.9192],[-51.186,-31.5044],[-50.8421,-31.19],[-50.3343,-30.5008],[-50.2519,-30.3049],[-50.2241,-30.2363],[-50.1703,-30.0971],[-50.1192,-29.9762],[-50.0753,-29.8845],[-50.0637,-29.86],[-50.0176,-29.7725],[-49.9337,-29.6251],[-49.9222,-29.6072],[-49.8035,-29.4436],[-49.7129,-29.3256],[-49.6451,-29.2384],[-49.516,-29.0957],[-49.3764,-28.9561],[-49.2901,-28.8832],[-49.1879,-28.8022],[-48.858,-28.6157],[-48.7063,-28.3414],[-48.6343,-28.113],[-48.6209,-27.9449],[-48.587,-27.9044],[-48.5766,-27.844],[-48.3706,-27.4498],[-48.5263,-27.4083],[-48.5948,-27.3161],[-48.6027,-27.2179],[-48.5784,-27.2115],[-48.508,-27.1105],[-48.5856,-27.1449],[-48.5891,-27.061],[-48.6283,-26.9601],[-48.6422,-26.9127],[-48.6212,-26.8262],[-48.6613,-26.7712],[-48.6819,-26.7184],[-48.6648,-26.5809],[-48.6507,-26.5473],[-48.5943,-26.4522],[-48.5694,-26.1677],[-48.5953,-25.9768],[-48.5496,-25.8523],[-48.4771,-25.7137],[-48.3583,-25.5859],[-48.3097,-25.4933],[-48.0961,-25.3089],[-48.2397,-24.9914],[-48.5563,-25.0843],[-48.5981,-25.0033],[-48.5664,-24.9168],[-48.5381,-24.7262],[-48.8108,-24.675],[-48.9123,-24.674],[-49.1298,-24.6819]],[[-53.4308,-26.282],[-53.4304,-26.2819],[-53.4309,-26.2821],[-53.4308,-26.282]]],[[[-53.6542,-25.3509],[-53.6251,-25.3464],[-53.6265,-25.3466],[-53.6542,-25.3509]]],[[[-53.3778,-23.2407],[-53.3781,-23.2409],[-53.3763,-23.2398],[-53.3778,-23.2407]]]]},"properties":{"codarea":"4"}},
{"type":"Feature","geometry":{"type":"Polygon","coordinates":[[[-52.3919,-22.1147],[-52.1613,-21.7708],[-52.1022,-21.5698],[-51.9622,-21.4933],[-51.8611,-21.3367],[-51.8797,-21.1979],[-51.7725,-21.0511],[-51.6236,-20.9444],[-51.5752,-20.6234],[-51.5676,-20.6183],[-51.4188,-20.465],[-51.3435,-20.3556],[-51.1094,-20.2801],[-51.0012,-20.0963],[-51.0005,-20.0854],[-51.0335,-19.7907],[-50.935,-19.4675],[-50.8256,-19.4733],[-50.828,-19.3108],[-50.7404,-19.2132],[-50.7331,-19.187],[-50.6457,-19.1348],[-50.4732,-18.9214],[-50.3523,-18.7603],[-50.27,-18.6842],[-50.0798,-18.6719],[-50.0288,-18.6015],[-49.7946,-18.6438],[-49.7577,-18.6097],[-49.723,-18.6094],[-49.5476,-18.5396],[-49.4862,-18.5323],[-49.3734,-18.6348],[-49.2927,-18.5639],[-49.2493,-18.5228],[-49.0538,-18.4026],[-48.9595,-18.3235],[-48.9177,-18.3059],[-48.6538,-18.3428],[-48.3418,-18.3708],[-48.2718,-18.3294],[-48.2272,-18.346],[-48.027,-18.4361],[-47.9546,-18.5],[-47.8646,-18.4491],[-47.8605,-18.4402],[-47.7695,-18.4183],[-47.6797,-18.3561],[-47.6102,-18.3157],[-47.607,-18.2462],[-47.4298,-18.1652],[-47.4079,-18.1419],[-47.2834,-18.0408],[-47.3712,-17.8313],[-47.3131,-17.5434],[-47.5366,-17.4571],[-47.5246,-17.4119],[-47.5108,-17.3261],[-47.1274,-16.9787],[-47.2257,-16.7205],[-47.4544,-16.4646],[-47.3226,-16.2091],[-47.3085,-16.05],[-47.31,-16.0363],[-47.1366,-15.9274],[-46.9525,-15.9166],[-46.8062,-15.8706],[-46.8826,-15.6101],[-46.8737,-15.2854],[-46.9251,-15.0575],[-46.5261,-15.0564],[-46.5027,-15.0509],[-46.5605,-14.815],[-46.5034,-14.7041],[-46.1768,-14.9494],[-46.0394,-14.8753],[-46.0251,-14.6781],[-46.021,-14.6699],[-45.9072,-14.3552],[-46.0601,-14.2319],[-46.227,-14.049],[-46.2121,-14.0101],[-46.2357,-13.7081],[-46.209,-13.4656],[-46.0683,-13.2954],[-46.2925,-13.3169],[-46.2987,-13.0638],[-46.113,-12.918],[-46.3644,-12.9907],[-46.418,-12.8224],[-46.4459,-12.9358],[-46.6354,-12.9699],[-46.8548,-13.0676],[-47.3929,-13.2624],[-47.5687,-13.1169],[-47.6797,-13.4682],[-47.7982,-13.329],[-48.1699,-13.3003],[-48.1437,-13.1525],[-48.4589,-13.2804],[-48.5161,-13.1391],[-48.5801,-13.3133],[-48.5759,-13.1242],[-48.8703,-12.8033],[-48.8798,-12.8171],[-48.9762,-12.9579],[-49.2377,-12.8838],[-49.3683,-13.2723],[-49.9088,-12.9751],[-50.3108,-12.7916],[-50.1934,-12.5638],[-50.1418,-12.3954],[-50.4342,-12.6494],[-50.511,-12.8609],[-50.6839,-12.6481],[-50.6236,-12.4553],[-50.7173,-11.7274],[-50.6701,-11.5816],[-50.6999,-11.3131],[-50.6095,-11.0674],[-50.6035,-10.6609],[-50.6033,-10.6598],[-50.4181,-10.3546],[-50.2248,-9.8412],[-50.846,-9.8006],[-51.3043,-9.7729],[-52.2567,-9.7077],[-52.6193,-9.6823],[-53.1334,-9.6452],[-53.5891,-9.611],[-54.1068,-9.5719],[-54.6135,-9.5358],[-54.9956,-9.5053],[-55.8672,-9.4343],[-56.1565,-9.4104],[-56.2723,-9.4008],[-56.6719,-9.3674],[-57.0598,-9.1824],[-57.2038,-8.9208],[-57.5929,-8.7565],[-57.6417,-8.2199],[-57.8319,-7.9615],[-57.8967,-7.6779],[-58.1371,-7.3561],[-58.3782,-7.8274],[-58.2864,-8.0885],[-58.4419,-8.7987],[-59.1274,-8.8033],[-60.4202,-8.7966],[-61.5831,-8.7987],[-61.4692,-8.9201],[-61.6162,-9.3268],[-61.477,-9.6299],[-61.5746,-9.7178],[-61.5402,-10.0002],[-61.4618,-10.4199],[-61.5503,-10.9861],[-61.429,-10.9875],[-61.0006,-10.9922],[-60.4601,-10.9899],[-60.3916,-11.0938],[-59.9768,-11.1224],[-59.9344,-11.4237],[-60.1109,-11.5825],[-59.7794,-12.3415],[-60.0289,-12.6186],[-60.1172,-12.9596],[-60.3332,-13.258],[-60.3716,-13.3186],[-60.3879,-13.4547],[-60.7093,-13.693],[-60.4727,-13.7937],[-60.3831,-13.9929],[-60.4536,-14.3141],[-60.2736,-14.621],[-60.245,-15.0975],[-60.5757,-15.0975],[-60.2395,-15.4746],[-60.1741,-16.2669],[-59.4692,-16.2796],[-58.7857,-16.308],[-58.3222,-16.2664],[-58.4768,-16.9367],[-58.3989,-17.184],[-57.9964,-17.5156],[-57.7523,-17.5645],[-57.5583,-18.2407],[-57.7833,-19.0351],[-58.1314,-19.7594],[-57.8591,-19.9717],[-58.1686,-20.1658],[-57.8337,-20.9363],[-57.8852,-21.6836],[-57.9951,-22.0887],[-57.5168,-22.1736],[-57.0497,-22.232],[-56.844,-22.3011],[-56.3929,-22.075],[-56.3455,-22.1813],[-55.8431,-22.2871],[-55.7667,-22.3842],[-55.6136,-22.6928],[-55.6659,-22.8525],[-55.5391,-23.2412],[-55.5604,-23.4831],[-55.4463,-23.9169],[-55.262,-23.9917],[-54.6838,-23.8305],[-54.4268,-23.9311],[-54.2862,-24.0682],[-54.169,-23.999],[-54.084,-23.865],[-54.0836,-23.8055],[-54.0511,-23.6872],[-54.0306,-23.6282],[-53.9602,-23.4434],[-53.7622,-23.3593],[-53.7149,-23.2834],[-53.634,-23.0034],[-53.4104,-22.8139],[-53.3274,-22.7646],[-53.24,-22.7335],[-53.1279,-22.6523],[-53.1052,-22.6219],[-52.9482,-22.4734],[-52.6553,-22.3031],[-52.4562,-22.1853],[-52.3919,-22.1147]],[[-51.4195,-14.9904],[-51.1028,-14.9265],[-51.3387,-14.9751],[-51.3531,-14.9939],[-51.4195,-14.9904]]]},"properties":{"codarea":"5"}}
]}